IRIDIUM 33 DEB          
1 35628U 97051RA  26115.78678257  .00005952  00000+0  99230-3 0  9997
2 35628  86.3539 309.1862 0009688 220.8584 139.1906 14.69821534884146
IRIDIUM 33 DEB          
1 35631U 97051RD  26115.03894211  .00000645  00000+0  16884-3 0  9997
2 35631  86.3654 323.5859 0018370  42.0713 111.5742 14.47725470891250
IRIDIUM 33 DEB          
1 35680U 97051RJ  26115.33377597  .00003951  00000+0  15712-2 0  9998
2 35680  86.1034 322.2937 0146294 213.4714 324.9896 14.22804913625998
IRIDIUM 33 DEB          
1 35744U 97051RX  26115.37399472  .00006786  00000+0  10492-2 0  9998
2 35744  86.3250 264.9309 0022500  98.3382 262.0387 14.72983500892976
IRIDIUM 33 DEB          
1 35797U 97051SF  26111.70515261  .00011179  00000+0  12475-2 0  9990
2 35797  86.3315 270.0322 0012263  69.8886 290.3658 14.86863650892698
IRIDIUM 33 DEB          
1 35806U 97051SQ  26110.32766267  .00002653  00000+0  56203-3 0  9997
2 35806  86.3423 323.9574 0013791   4.5460 355.5872 14.58851578881984
IRIDIUM 33 DEB          
1 35809U 97051ST  26115.15608699  .00010658  00000+0  14428-2 0  9996
2 35809  86.3238 274.4110 0013438 139.3012 220.9215 14.78825146887778
IRIDIUM 33 DEB          
1 35846U 97051SW  26114.65910596  .00001117  00000+0  32228-3 0  9992
2 35846  86.3788   2.1031 0020074  93.5701 266.7796 14.43721160732467
IRIDIUM 33 DEB          
1 35848U 97051SY  26115.82701073  .00010037  00000+0  12548-2 0  9995
2 35848  86.3871 315.6489 0009898  95.4967 264.7385 14.82196896686743
IRIDIUM 33 DEB          
1 35850U 97051TA  26114.19870447  .00008658  00000+0  10800-2 0  9994
2 35850  86.3443 283.7962 0011168  99.1870 261.0617 14.82268518733178
IRIDIUM 33 DEB          
1 35915U 97051TY  26112.73377580  .00008497  00000+0  99924-3 0  9990
2 35915  86.3392 282.8815 0012506 101.5638 258.6990 14.84694584100270
IRIDIUM 33 DEB          
1 35918U 97051UB  26113.02063000  .00002406  00000+0  58233-3 0  9997
2 35918  86.4045  19.4046 0028511  89.8196 284.6167 14.52423262871121
IRIDIUM 33 DEB          
1 35929U 97051UN  26113.09188747  .00030442  00000+0  16954-2 0  9996
2 35929  86.3437 249.8913 0013556 253.0784 106.8970 15.13410606897592
IRIDIUM 33 DEB          
1 36011U 97051US  26114.38430878  .00000913  00000+0  27295-3 0  9998
2 36011  86.3414 338.4586 0019743 139.0347 343.6681 14.41796545664516
IRIDIUM 33 DEB          
1 36012U 97051UT  26115.80388167  .00004488  00000+0  16165-2 0  9994
2 36012  86.4382 253.3632 0219579 193.9660 165.5397 14.20967537673877
IRIDIUM 33 DEB          
1 36028U 97051VK  26115.60807911  .00023792  00000+0  17713-2 0  9991
2 36028  86.3184 243.3287 0014318 274.3878  85.5720 15.02744787891309
